RADUGA 1                
1 08513U 75123A   25065.78376652 -.00000069  00000+0  00000+0 0  9991
2 08513   4.0124 274.1958 0004834 264.9081 339.2687  1.00295608190127
RADUGA 2                
1 09416U 76092A   25065.79498255 -.00000208  00000+0  00000+0 0  9990
2 09416   4.6852 276.6624 0029235  26.4118 234.2369  1.00274235124654
RADUGA 3                
1 10159U 77071A   25065.79939681 -.00000240  00000+0  00000+0 0  9993
2 10159   5.3182 279.8895 0008103 284.8428 339.6236  1.00196540172359
RADUGA 4                
1 10987U 78073A   25066.14834238  .00000112  00000+0  00000+0 0  9994
2 10987   5.9741 284.2387 0010701  25.3483 315.5981  1.00320472114907
RADUGA 5                
1 11343U 79035A   25065.78396748 -.00000081  00000+0  00000+0 0  9994
2 11343   6.4648 287.5830 0003657 206.5501  26.5430  1.00247232124665
RADUGA 6                
1 11708U 80016A   25064.71565332 -.00000205  00000+0  00000+0 0  9997
2 11708   6.8694 291.3021 0001469 305.5420 269.2116  1.00340799117468
RADUGA 7                
1 12003U 80081A   25065.53179280  .00000102  00000+0  00000+0 0  9997
2 12003   7.0812 293.6154 0010265 304.8634 309.0081  1.00308888118612
RADUGA 8                
1 12351U 81027A   25066.06156826 -.00000303  00000+0  00000+0 0  9998
2 12351   7.4210 294.0003 0079605 259.8217  88.2838  1.00412299117843
RADUGA 9                
1 12618U 81069A   25065.77934927 -.00000039  00000+0  00000+0 0  9999
2 12618   7.6935 297.6493 0001293 159.1165  55.2815  1.00354520 42656
RADUGA 10               
1 12897U 81102A   25064.66599148 -.00000169  00000+0  00000+0 0  9999
2 12897   7.8002 298.8322 0003265 231.4803 315.8399  1.00255749112642
RADUGA 11               
1 13669U 82113A   25064.30114441 -.00000047  00000+0  00000+0 0  9995
2 13669  10.1339 314.3735 0040596 282.2854 275.4738  0.97708008116952
RADUGA 12               
1 13974U 83028A   25064.73767317 -.00000134  00000+0  00000+0 0  9990
2 13974   9.1668 309.6797 0001311  29.9195 167.7745  1.00294180164685
RADUGA 13               
1 14307U 83088A   25065.78186561 -.00000005  00000+0  00000+0 0  9996
2 14307  10.4310 315.7848 0017078  56.7147 143.8863  0.98172473114353
RADUGA 14               
1 14725U 84016A   25065.78827873 -.00000122  00000+0  00000+0 0  9990
2 14725   9.4778 313.9250 0002087 152.5053  59.7856  1.00245738113417
RADUGA 15               
1 15057U 84063A   25064.63447486 -.00000280  00000+0  00000+0 0  9997
2 15057   9.6312 314.9383 0003109 203.7254 325.9975  1.00372018136404
RADUGA 16               
1 15946U 85070A   25066.10005624 -.00000273  00000+0  00000+0 0  9993
2 15946  10.2315 319.8488 0001484 282.7733 248.1692  1.00182894117531
RADUGA 17               
1 16250U 85107A   25066.41115686 -.00000164  00000+0  00000+0 0  9996
2 16250  10.3997 321.3637 0012634 223.0759  36.5749  1.00129423147125
RADUGA 18               
1 16497U 86007A   25065.75872376  .00000007  00000+0  00000+0 0  9996
2 16497  11.2770 324.2038 0071352 190.0096 327.2183  0.98811922141240
RADUGA 19               
1 17046U 86082A   25065.27995466 -.00000034  00000+0  00000+0 0  9994
2 17046  11.8449 328.3439 0010893 180.6369  26.1894  0.98459116138301
RADUGA 20               
1 17611U 87028A   25065.25372266 -.00000085  00000+0  00000+0 0  9994
2 17611  13.9477 331.5977 0028211 162.2627  18.6649  0.95960597133825
RADUGA 21               
1 18631U 87100A   25063.36086656  .00000080  00000+0  00000+0 0  9997
2 18631  11.9783 328.6125 0000943 205.3452 340.7936  1.00205372136376
RADUGA 22               
1 19596U 88095A   25065.52733289 -.00000380  00000+0  00000+0 0  9997
2 19596  12.1335 333.2830 0005408 184.9119 313.4090  1.00343665116960
RADUGA 23               
1 19928U 89030A   25065.36066850  .00000118  00000+0  00000+0 0  9999
2 19928  12.3496 335.1353 0019875 195.3000 163.5717  1.00327341130158
RADUGA-1 1              
1 20083U 89048A   25066.23741405 -.00000015  00000+0  00000+0 0  9992
2 20083  13.2117 338.3369 0019593 141.2007  33.0755  0.98707220126655
RADUGA 24               
1 20367U 89098A   25064.85858293  .00000100  00000+0  00000+0 0  9996
2 20367  13.0096 337.1403 0002354 260.6913 282.3315  1.00244991128275
RADUGA 25               
1 20499U 90016A   25065.34560372 -.00000296  00000+0  00000+0 0  9994
2 20499  12.8123 337.9470 0003978 203.6280  60.8024  1.00325149128213
RADUGA 26               
1 21016U 90112A   25065.79698221 -.00000239  00000+0  00000+0 0  9998
2 21016  13.2564 341.2008 0004357 115.8464  82.1689  1.00313107125579
RADUGA-1 2              
1 21038U 90116A   25065.77175109  .00000030  00000+0  00000+0 0  9997
2 21038  13.2978 341.2472 0005300 133.4328  25.2784  1.00314516 42657
RADUGA 27               
1 21132U 91014A   25064.88260990  .00000106  00000+0  00000+0 0  9998
2 21132  13.7772 340.4039 0000193 112.5805  54.0215  1.00228920124611
RADUGA 28               
1 21821U 91087A   25064.78405613 -.00000298  00000+0  00000+0 0  9998
2 21821  13.7120 344.4481 0004876 170.1148  29.3380  1.00198138121623
RADUGA 29               
1 22557U 93013A   25064.80660388  .00000040  00000+0  00000+0 0  9995
2 22557  14.0958 348.5951 0004755 167.4634 309.3704  1.00257682116989
RADUGA 30               
1 22836U 93062A   25063.85392038 -.00000060  00000+0  00000+0 0  9990
2 22836  14.2291 350.6213 0003984 306.9427 241.9650  1.00269154 41298
RADUGA-1 3              
1 22981U 94008A   25064.72158170 -.00000143  00000+0  00000+0 0  9998
2 22981  14.3562 351.7186 0001153 190.6425 320.2926  1.00215269113783
RADUGA 31               
1 23010U 94012A   25064.72158112 -.00000176  00000+0  00000+0 0  9999
2 23010  14.3266 351.7314 0002431 142.5541   8.9833  1.00339334113659
RADUGA 32               
1 23448U 94087A   25065.78276132 -.00000073  00000+0  00000+0 0  9992
2 23448  14.4318 354.4769 0007416 247.5274 274.8742  1.00268589128195
RADUGA-1 4              
1 25642U 99010A   25065.43705862  .00000099  00000+0  00000+0 0  9997
2 25642  15.5128   5.5143 0006157 268.0507  91.1757  1.00319386 95283
RADUGA-1 5              
1 26477U 00049A   25065.72557038  .00000055  00000+0  00000+0 0  9992
2 26477  13.7005  11.4796 0001876  71.8386  35.6009  1.00319644 89735
RADUGA-1 6              
1 26936U 01045A   25064.92390628 -.00000047  00000+0  00000+0 0  9992
2 26936  14.1655  18.0308 0017980 198.6003 355.8432  0.97743332 84024
RADUGA-1 7              
1 28194U 04010A   25066.42995554 -.00000373  00000+0  00000+0 0  9993
2 28194  13.1350  24.4114 0004481 230.2416 191.1299  1.00307005 76720
RADUGA-1M 1             
1 32373U 07058A   25065.39870545 -.00000240  00000+0  00000+0 0  9992
2 32373   9.1268  56.1410 0002185 287.2367 268.1689  0.99397094 47746
RADUGA-1 8              
1 34264U 09010A   25064.39201944 -.00000283  00000+0  00000+0 0  9990
2 34264  11.1924  45.9867 0011016  16.0582 186.5000  0.99824112 58491
RADUGA-1M 2             
1 36358U 10002A   25066.11048187 -.00000238  00000+0  00000+0 0  9999
2 36358   2.3990  84.7792 0007900 242.5477 220.1428  0.98969146 55320
RADUGA-1M 3             
1 39375U 13062A   25065.75231132  .00000143  00000+0  00000+0 0  9997
2 39375   4.7700  78.1353 0000432 309.3159  83.0939  1.00273251 41427
